start=new Date('2023-06-14T00:00:00.000Z').valueOf();
sats=[{"OBJECT_ID":"2020-088Q","MEAN_MOTION":"15.06386328","SEMIMAJOR_AXIS":"6925.390","EPHEMERIS_TYPE":"0","FILE":"3932134","PERIOD":"95.593","REF_FRAME":"TEME","OBJECT_NAME":"STARLINK-1846","TLE_LINE1":"1 47136U 20088Q   23164.23276434 -.00000315  00000-0 -22502-5 0  9993","MEAN_ANOMALY":"261.9303","NORAD_CAT_ID":"47136","COUNTRY_CODE":"US","BSTAR":"-0.00000225020000","EPOCH":"2023-06-13T05:35:10.838976","LAUNCH_DATE":"2020-11-25","MEAN_MOTION_DDOT":"0.0000000000000","TIME_SYSTEM":"UTC","APOAPSIS":"548.197","RA_OF_ASC_NODE":"112.8458","CENTER_NAME":"EARTH","PERIAPSIS":"546.314","ARG_OF_PERICENTER":"98.1840","CLASSIFICATION_TYPE":"U","DECAY_DATE":null,"ELEMENT_SET_NO":"999","TLE_LINE2":"2 47136  53.0537 112.8458 0001359  98.1840 261.9303 15.06386328141049","SITE":"AFETR","ECCENTRICITY":"0.00013590","OBJECT_TYPE":"PAYLOAD","REV_AT_EPOCH":"14104","RCS_SIZE":"LARGE","MEAN_ELEMENT_THEORY":"SGP4","INCLINATION":"53.0537","GP_ID":"233836688","MEAN_MOTION_DOT":"-0.00000315"},{"RA_OF_ASC_NODE":"102.9211","CENTER_NAME":"EARTH","PERIAPSIS":"546.325","ARG_OF_PERICENTER":"93.6332","CLASSIFICATION_TYPE":"U","ELEMENT_SET_NO":"999","DECAY_DATE":null,"SITE":"AFETR","TLE_LINE2":"2 47137  53.0528 102.9211 0001347  93.6332 266.4811 15.06385670141188","ECCENTRICITY":"0.00013470","OBJECT_TYPE":"PAYLOAD","REV_AT_EPOCH":"14118","RCS_SIZE":"LARGE","INCLINATION":"53.0528","MEAN_ELEMENT_THEORY":"SGP4","GP_ID":"233837440","MEAN_MOTION_DOT":"0.00001187","SEMIMAJOR_AXIS":"6925.392","MEAN_MOTION":"15.06385670","OBJECT_ID":"2020-088R","EPHEMERIS_TYPE":"0","FILE":"3932134","REF_FRAME":"TEME","PERIOD":"95.593","MEAN_ANOMALY":"266.4811","TLE_LINE1":"1 47137U 20088R   23164.21525116  .00001187  00000-0  98571-4 0  9990","OBJECT_NAME":"STARLINK-1849","COUNTRY_CODE":"US","NORAD_CAT_ID":"47137","BSTAR":"0.00009857100000","EPOCH":"2023-06-13T05:09:57.700224","LAUNCH_DATE":"2020-11-25","MEAN_MOTION_DDOT":"0.0000000000000","APOAPSIS":"548.190","TIME_SYSTEM":"UTC"},{"TLE_LINE2":"2 47138  53.0534 108.2513 0001104  96.2795 263.8320 15.06384890141115","SITE":"AFETR","ECCENTRICITY":"0.00011040","PERIAPSIS":"546.495","CLASSIFICATION_TYPE":"U","ARG_OF_PERICENTER":"96.2795","ELEMENT_SET_NO":"999","DECAY_DATE":null,"INCLINATION":"53.0534","MEAN_ELEMENT_THEORY":"SGP4","GP_ID":"233838190","MEAN_MOTION_DOT":"0.00001283","OBJECT_TYPE":"PAYLOAD","REV_AT_EPOCH":"14111","RCS_SIZE":"LARGE","RA_OF_ASC_NODE":"108.2513","CENTER_NAME":"EARTH","NORAD_CAT_ID":"47138","COUNTRY_CODE":"US","EPOCH":"2023-06-13T05:06:41.707008","BSTAR":"0.00010504000000","MEAN_ANOMALY":"263.8320","TLE_LINE1":"1 47138U 20088S   23164.21298272  .00001283  00000-0  10504-3 0  9997","OBJECT_NAME":"STARLINK-1850","TIME_SYSTEM":"UTC","APOAPSIS":"548.024","LAUNCH_DATE":"2020-11-25","MEAN_MOTION_DDOT":"0.0000000000000","OBJECT_ID":"2020-088S","MEAN_MOTION":"15.06384890","SEMIMAJOR_AXIS":"6925.395","FILE":"3932134","PERIOD":"95.593","REF_FRAME":"TEME","EPHEMERIS_TYPE":"0"},{"EPHEMERIS_TYPE":"0","FILE":"3932371","PERIOD":"95.592","REF_FRAME":"TEME","SEMIMAJOR_AXIS":"6925.337","OBJECT_ID":"2020-088T","MEAN_MOTION":"15.06403627","LAUNCH_DATE":"2020-11-25","MEAN_MOTION_DDOT":"0.0000000000000","APOAPSIS":"548.122","TIME_SYSTEM":"UTC","TLE_LINE1":"1 47139U 20088T   23164.86076996  .00002123  00000-0  16136-3 0  9997","MEAN_ANOMALY":"267.0647","OBJECT_NAME":"STARLINK-1852","COUNTRY_CODE":"US","NORAD_CAT_ID":"47139","EPOCH":"2023-06-13T20:39:30.524544","BSTAR":"0.00016136000000","CENTER_NAME":"EARTH","RA_OF_ASC_NODE":"115.2264","OBJECT_TYPE":"PAYLOAD","RCS_SIZE":"LARGE","REV_AT_EPOCH":"14106","MEAN_ELEMENT_THEORY":"SGP4","INCLINATION":"53.0541","MEAN_MOTION_DOT":"0.00002123","GP_ID":"233869648","PERIAPSIS":"546.283","CLASSIFICATION_TYPE":"U","ARG_OF_PERICENTER":"93.0494","ELEMENT_SET_NO":"999","DECAY_DATE":null,"SITE":"AFETR","TLE_LINE2":"2 47139  53.0541 115.2264 0001328  93.0494 267.0647 15.06403627141066","ECCENTRICITY":"0.00013280"},{"RA_OF_ASC_NODE":"103.3337","CENTER_NAME":"EARTH","PERIAPSIS":"546.369","CLASSIFICATION_TYPE":"U","ARG_OF_PERICENTER":"91.2646","ELEMENT_SET_NO":"999","DECAY_DATE":null,"TLE_LINE2":"2 47141  53.0536 103.3337 0001267  91.2646 268.8488 15.06389130141461","SITE":"AFETR","ECCENTRICITY":"0.00012670","OBJECT_TYPE":"PAYLOAD","RCS_SIZE":"LARGE","REV_AT_EPOCH":"14146","MEAN_ELEMENT_THEORY":"SGP4","INCLINATION":"53.0536","GP_ID":"233808839","MEAN_MOTION_DOT":"-0.00000388","MEAN_MOTION":"15.06389130","OBJECT_ID":"2020-088V","SEMIMAJOR_AXIS":"6925.382","EPHEMERIS_TYPE":"0","FILE":"3931755","REF_FRAME":"TEME","PERIOD":"95.593","MEAN_ANOMALY":"268.8488","TLE_LINE1":"1 47141U 20088V   23164.12310824 -.00000388  00000-0 -71567-5 0  9994","OBJECT_NAME":"STARLINK-1854","NORAD_CAT_ID":"47141","COUNTRY_CODE":"US","EPOCH":"2023-06-13T02:57:16.551936","BSTAR":"-0.00000715670000","LAUNCH_DATE":"2020-11-25","MEAN_MOTION_DDOT":"0.0000000000000","TIME_SYSTEM":"UTC","APOAPSIS":"548.124"},{"FILE":"3932134","REF_FRAME":"TEME","PERIOD":"95.593","EPHEMERIS_TYPE":"0","OBJECT_ID":"2020-088X","MEAN_MOTION":"15.06389220","SEMIMAJOR_AXIS":"6925.382","TIME_SYSTEM":"UTC","APOAPSIS":"548.275","LAUNCH_DATE":"2020-11-25","MEAN_MOTION_DDOT":"0.0000000000000","COUNTRY_CODE":"US","NORAD_CAT_ID":"47143","EPOCH":"2023-06-13T05:41:49.284672","BSTAR":"0.00011953000000","TLE_LINE1":"1 47143U 20088X   23164.23737598  .00001499  00000-0  11953-3 0  9992","OBJECT_NAME":"STARLINK-1856","MEAN_ANOMALY":"277.6857","CENTER_NAME":"EARTH","RA_OF_ASC_NODE":"102.8201","MEAN_ELEMENT_THEORY":"SGP4","INCLINATION":"53.0542","GP_ID":"233837940","MEAN_MOTION_DOT":"0.00001499","OBJECT_TYPE":"PAYLOAD","REV_AT_EPOCH":"14118","RCS_SIZE":"LARGE","TLE_LINE2":"2 47143  53.0542 102.8201 0001485  82.4301 277.6857 15.06389220141183","SITE":"AFETR","ECCENTRICITY":"0.00014850","PERIAPSIS":"546.218","ARG_OF_PERICENTER":"82.4301","CLASSIFICATION_TYPE":"U","ELEMENT_SET_NO":"999","DECAY_DATE":null},{"OBJECT_ID":"2020-088Y","MEAN_MOTION":"15.06414497","SEMIMAJOR_AXIS":"6925.304","PERIOD":"95.591","REF_FRAME":"TEME","FILE":"3932371","EPHEMERIS_TYPE":"0","BSTAR":"0.00107450000000","EPOCH":"2023-06-13T19:41:45.565728","COUNTRY_CODE":"US","NORAD_CAT_ID":"47144","MEAN_ANOMALY":"262.5399","TLE_LINE1":"1 47144U 20088Y   23164.82066627  .00015766  00000-0  10745-2 0  9995","OBJECT_NAME":"STARLINK-1857","TIME_SYSTEM":"UTC","APOAPSIS":"548.065","MEAN_MOTION_DDOT":"0.0000000000000","LAUNCH_DATE":"2020-11-25","RA_OF_ASC_NODE":"90.2049","CENTER_NAME":"EARTH","ECCENTRICITY":"0.00012940","TLE_LINE2":"2 47144  53.0542  90.2049 0001294  97.5737 262.5399 15.06414497141417","SITE":"AFETR","ELEMENT_SET_NO":"999","DECAY_DATE":null,"PERIAPSIS":"546.273","CLASSIFICATION_TYPE":"U","ARG_OF_PERICENTER":"97.5737","MEAN_MOTION_DOT":"0.00015766","GP_ID":"233868899","MEAN_ELEMENT_THEORY":"SGP4","INCLINATION":"53.0542","REV_AT_EPOCH":"14141","RCS_SIZE":"LARGE","OBJECT_TYPE":"PAYLOAD"},{"MEAN_ANOMALY":"256.7465","TLE_LINE1":"1 47147U 20088AB  23164.84462159  .00000196  00000-0  32072-4 0  9990","OBJECT_NAME":"STARLINK-1860","NORAD_CAT_ID":"47147","COUNTRY_CODE":"US","EPOCH":"2023-06-13T20:16:15.305376","BSTAR":"0.00003207200000","LAUNCH_DATE":"2020-11-25","MEAN_MOTION_DDOT":"0.0000000000000","APOAPSIS":"548.201","TIME_SYSTEM":"UTC","SEMIMAJOR_AXIS":"6925.361","OBJECT_ID":"2020-088AB","MEAN_MOTION":"15.06396076","EPHEMERIS_TYPE":"0","FILE":"3932371","REF_FRAME":"TEME","PERIOD":"95.592","ARG_OF_PERICENTER":"103.3681","PERIAPSIS":"546.250","CLASSIFICATION_TYPE":"U","ELEMENT_SET_NO":"999","DECAY_DATE":null,"SITE":"AFETR","TLE_LINE2":"2 47147  53.0544 110.0968 0001408 103.3681 256.7465 15.06396076141145","ECCENTRICITY":"0.00014080","OBJECT_TYPE":"PAYLOAD","RCS_SIZE":"LARGE","REV_AT_EPOCH":"14114","MEAN_ELEMENT_THEORY":"SGP4","INCLINATION":"53.0544","GP_ID":"233869148","MEAN_MOTION_DOT":"0.00000196","RA_OF_ASC_NODE":"110.0968","CENTER_NAME":"EARTH"},{"TIME_SYSTEM":"UTC","APOAPSIS":"548.227","MEAN_MOTION_DDOT":"0.0000000000000","LAUNCH_DATE":"2020-11-25","BSTAR":"0.00001247500000","EPOCH":"2023-06-13T05:20:35.808288","NORAD_CAT_ID":"47148","COUNTRY_CODE":"US","TLE_LINE1":"1 47148U 20088AC  23164.22263667 -.00000096  00000-0  12475-4 0  9991","MEAN_ANOMALY":"274.8803","OBJECT_NAME":"STARLINK-1861","REF_FRAME":"TEME","PERIOD":"95.593","FILE":"3932134","EPHEMERIS_TYPE":"0","MEAN_MOTION":"15.06382898","OBJECT_ID":"2020-088AC","SEMIMAJOR_AXIS":"6925.401","GP_ID":"233836689","MEAN_MOTION_DOT":"-0.00000096","INCLINATION":"53.0554","MEAN_ELEMENT_THEORY":"SGP4","REV_AT_EPOCH":"14118","RCS_SIZE":"LARGE","OBJECT_TYPE":"PAYLOAD","ECCENTRICITY":"0.00013880","TLE_LINE2":"2 47148  53.0554 102.8923 0001388  85.2344 274.8803 15.06382898141186","SITE":"AFETR","DECAY_DATE":null,"ELEMENT_SET_NO":"999","ARG_OF_PERICENTER":"85.2344","PERIAPSIS":"546.305","CLASSIFICATION_TYPE":"U","CENTER_NAME":"EARTH","RA_OF_ASC_NODE":"102.8923"},{"SEMIMAJOR_AXIS":"6925.322","OBJECT_ID":"2020-088AD","MEAN_MOTION":"15.06408755","FILE":"3932371","REF_FRAME":"TEME","PERIOD":"95.592","EPHEMERIS_TYPE":"0","COUNTRY_CODE":"US","NORAD_CAT_ID":"47149","BSTAR":"0.00030761000000","EPOCH":"2023-06-13T21:57:06.066720","TLE_LINE1":"1 47149U 20088AD  23164.91465355  .00004304  00000-0  30761-3 0  9998","MEAN_ANOMALY":"278.0403","OBJECT_NAME":"STARLINK-1862","APOAPSIS":"548.157","TIME_SYSTEM":"UTC","LAUNCH_DATE":"2020-11-25","MEAN_MOTION_DDOT":"0.0000000000000","RA_OF_ASC_NODE":"109.7787","CENTER_NAME":"EARTH","SITE":"AFETR","TLE_LINE2":"2 47149  53.0534 109.7787 0001401  82.0745 278.0403 15.06408755141885","ECCENTRICITY":"0.00014010","PERIAPSIS":"546.216","CLASSIFICATION_TYPE":"U","ARG_OF_PERICENTER":"82.0745","DECAY_DATE":null,"ELEMENT_SET_NO":"999","MEAN_ELEMENT_THEORY":"SGP4","INCLINATION":"53.0534","GP_ID":"233870648","MEAN_MOTION_DOT":"0.00004304","OBJECT_TYPE":"PAYLOAD","REV_AT_EPOCH":"14188","RCS_SIZE":"LARGE"}];
